CCSDS_OMM_VERS = 2.0
CREATION_DATE  = 
ORIGINATOR     = 

OBJECT_NAME    = DELTA 2 R/B(1)
OBJECT_ID      = 1990-008B
CENTER_NAME    = EARTH
REF_FRAME      = TEME
TIME_SYSTEM    = UTC
MEAN_ELEMENT_THEORY = SGP/SGP4

EPOCH          = 2026-02-22T16:05:59.647200
MEAN_MOTION    = 15.53747555
ECCENTRICITY   = .00884124
INCLINATION    = 35.6038
RA_OF_ASC_NODE = 273.2539
ARG_OF_PERICENTER = 118.7350
MEAN_ANOMALY   = 242.2303

EPHEMERIS_TYPE = 0
CLASSIFICATION_TYPE = U
NORAD_CAT_ID   = 20453
ELEMENT_SET_NO = 999
REV_AT_EPOCH   = 92379
BSTAR          = .86760244E-3
MEAN_MOTION_DOT = .68742E-3
MEAN_MOTION_DDOT = 0

CCSDS_OMM_VERS = 2.0
CREATION_DATE  = 
ORIGINATOR     = 

OBJECT_NAME    = COSMOS 2058
OBJECT_ID      = 1990-010A
CENTER_NAME    = EARTH
REF_FRAME      = TEME
TIME_SYSTEM    = UTC
MEAN_ELEMENT_THEORY = SGP/SGP4

EPOCH          = 2026-02-22T22:46:32.566656
MEAN_MOTION    = 15.11175959
ECCENTRICITY   = .00104428
INCLINATION    = 82.4671
RA_OF_ASC_NODE = 61.9501
ARG_OF_PERICENTER = 33.2974
MEAN_ANOMALY   = 326.8911

EPHEMERIS_TYPE = 0
CLASSIFICATION_TYPE = U
NORAD_CAT_ID   = 20465
ELEMENT_SET_NO = 999
REV_AT_EPOCH   = 94001
BSTAR          = .27681713E-3
MEAN_MOTION_DOT = .4678E-4
MEAN_MOTION_DDOT = 0

CCSDS_OMM_VERS = 2.0
CREATION_DATE  = 
ORIGINATOR     = 

OBJECT_NAME    = SL-14 R/B
OBJECT_ID      = 1990-010B
CENTER_NAME    = EARTH
REF_FRAME      = TEME
TIME_SYSTEM    = UTC
MEAN_ELEMENT_THEORY = SGP/SGP4

EPOCH          = 2026-02-22T21:59:05.633088
MEAN_MOTION    = 14.83555154
ECCENTRICITY   = .00196267
INCLINATION    = 82.5003
RA_OF_ASC_NODE = 281.2689
ARG_OF_PERICENTER = 353.0858
MEAN_ANOMALY   = 7.0083

EPHEMERIS_TYPE = 0
CLASSIFICATION_TYPE = U
NORAD_CAT_ID   = 20466
ELEMENT_SET_NO = 999
REV_AT_EPOCH   = 92629
BSTAR          = .44076412E-4
MEAN_MOTION_DOT = .388E-5
MEAN_MOTION_DDOT = 0

CCSDS_OMM_VERS = 2.0
CREATION_DATE  = 
ORIGINATOR     = 

OBJECT_NAME    = SL-14 R/B
OBJECT_ID      = 1990-018B
CENTER_NAME    = EARTH
REF_FRAME      = TEME
TIME_SYSTEM    = UTC
MEAN_ELEMENT_THEORY = SGP/SGP4

EPOCH          = 2026-02-22T22:04:16.257504
MEAN_MOTION    = 14.82127088
ECCENTRICITY   = .00172929
INCLINATION    = 82.5181
RA_OF_ASC_NODE = 236.8971
ARG_OF_PERICENTER = 137.1365
MEAN_ANOMALY   = 223.1201

EPHEMERIS_TYPE = 0
CLASSIFICATION_TYPE = U
NORAD_CAT_ID   = 20511
ELEMENT_SET_NO = 999
REV_AT_EPOCH   = 92039
BSTAR          = .59571681E-4
MEAN_MOTION_DOT = .499E-5
MEAN_MOTION_DDOT = 0

CCSDS_OMM_VERS = 2.0
CREATION_DATE  = 
ORIGINATOR     = 

OBJECT_NAME    = HST
OBJECT_ID      = 1990-037B
CENTER_NAME    = EARTH
REF_FRAME      = TEME
TIME_SYSTEM    = UTC
MEAN_ELEMENT_THEORY = SGP/SGP4

EPOCH          = 2026-02-22T22:24:56.351520
MEAN_MOTION    = 15.29225828
ECCENTRICITY   = .00011429
INCLINATION    = 28.4686
RA_OF_ASC_NODE = 140.6395
ARG_OF_PERICENTER = 321.3922
MEAN_ANOMALY   = 38.6592

EPHEMERIS_TYPE = 0
CLASSIFICATION_TYPE = U
NORAD_CAT_ID   = 20580
ELEMENT_SET_NO = 999
REV_AT_EPOCH   = 77105
BSTAR          = .27457943E-3
MEAN_MOTION_DOT = .8245E-4
MEAN_MOTION_DDOT = 0

CCSDS_OMM_VERS = 2.0
CREATION_DATE  = 
ORIGINATOR     = 

OBJECT_NAME    = SL-16 R/B
OBJECT_ID      = 1990-046B
CENTER_NAME    = EARTH
REF_FRAME      = TEME
TIME_SYSTEM    = UTC
MEAN_ELEMENT_THEORY = SGP/SGP4

EPOCH          = 2026-02-22T22:08:34.863936
MEAN_MOTION    = 14.15014875
ECCENTRICITY   = .0015675
INCLINATION    = 71.0018
RA_OF_ASC_NODE = 328.9267
ARG_OF_PERICENTER = 319.8925
MEAN_ANOMALY   = 40.1039

EPHEMERIS_TYPE = 0
CLASSIFICATION_TYPE = U
NORAD_CAT_ID   = 20625
ELEMENT_SET_NO = 999
REV_AT_EPOCH   = 84630
BSTAR          = .67031851E-4
MEAN_MOTION_DOT = .82E-6
MEAN_MOTION_DDOT = 0

CCSDS_OMM_VERS = 2.0
CREATION_DATE  = 
ORIGINATOR     = 

OBJECT_NAME    = COSMOS 2084
OBJECT_ID      = 1990-055A
CENTER_NAME    = EARTH
REF_FRAME      = TEME
TIME_SYSTEM    = UTC
MEAN_ELEMENT_THEORY = SGP/SGP4

EPOCH          = 2026-02-22T21:51:51.007392
MEAN_MOTION    = 15.05545603
ECCENTRICITY   = .00194002
INCLINATION    = 62.7913
RA_OF_ASC_NODE = 25.9773
ARG_OF_PERICENTER = 186.6120
MEAN_ANOMALY   = 173.4728

EPHEMERIS_TYPE = 0
CLASSIFICATION_TYPE = U
NORAD_CAT_ID   = 20663
ELEMENT_SET_NO = 999
REV_AT_EPOCH   = 93409
BSTAR          = .23263511E-3
MEAN_MOTION_DOT = .3177E-4
MEAN_MOTION_DDOT = 0

CCSDS_OMM_VERS = 2.0
CREATION_DATE  = 
ORIGINATOR     = 

OBJECT_NAME    = SL-6 R/B(2)
OBJECT_ID      = 1990-055D
CENTER_NAME    = EARTH
REF_FRAME      = TEME
TIME_SYSTEM    = UTC
MEAN_ELEMENT_THEORY = SGP/SGP4

EPOCH          = 2026-02-22T22:33:42.555168
MEAN_MOTION    = 15.03517631
ECCENTRICITY   = .00224939
INCLINATION    = 62.7834
RA_OF_ASC_NODE = 304.0076
ARG_OF_PERICENTER = 343.1628
MEAN_ANOMALY   = 16.8722

EPHEMERIS_TYPE = 0
CLASSIFICATION_TYPE = U
NORAD_CAT_ID   = 20666
ELEMENT_SET_NO = 999
REV_AT_EPOCH   = 93597
BSTAR          = .1796442E-3
MEAN_MOTION_DOT = .2274E-4
MEAN_MOTION_DDOT = 0

CCSDS_OMM_VERS = 2.0
CREATION_DATE  = 
ORIGINATOR     = 

OBJECT_NAME    = SL-8 R/B
OBJECT_ID      = 1990-078B
CENTER_NAME    = EARTH
REF_FRAME      = TEME
TIME_SYSTEM    = UTC
MEAN_ELEMENT_THEORY = SGP/SGP4

EPOCH          = 2026-02-22T20:33:51.956640
MEAN_MOTION    = 14.88528215
ECCENTRICITY   = .03654055
INCLINATION    = 82.9005
RA_OF_ASC_NODE = 264.6463
ARG_OF_PERICENTER = 63.7467
MEAN_ANOMALY   = 300.0818

EPHEMERIS_TYPE = 0
CLASSIFICATION_TYPE = U
NORAD_CAT_ID   = 20775
ELEMENT_SET_NO = 999
REV_AT_EPOCH   = 80709
BSTAR          = .52992006E-3
MEAN_MOTION_DOT = .18056E-3
MEAN_MOTION_DDOT = 0

CCSDS_OMM_VERS = 2.0
CREATION_DATE  = 
ORIGINATOR     = 

OBJECT_NAME    = SL-8 R/B
OBJECT_ID      = 1991-006B
CENTER_NAME    = EARTH
REF_FRAME      = TEME
TIME_SYSTEM    = UTC
MEAN_ELEMENT_THEORY = SGP/SGP4

EPOCH          = 2026-02-22T23:04:59.465568
MEAN_MOTION    = 13.77492600
ECCENTRICITY   = .00236789
INCLINATION    = 82.9456
RA_OF_ASC_NODE = 180.9943
ARG_OF_PERICENTER = 77.7766
MEAN_ANOMALY   = 33.2712

EPHEMERIS_TYPE = 0
CLASSIFICATION_TYPE = U
NORAD_CAT_ID   = 21088
ELEMENT_SET_NO = 999
REV_AT_EPOCH   = 76204
BSTAR          = .34660762E-4
MEAN_MOTION_DOT = .5E-6
MEAN_MOTION_DDOT = 0

CCSDS_OMM_VERS = 2.0
CREATION_DATE  = 
ORIGINATOR     = 

OBJECT_NAME    = OKEAN-3
OBJECT_ID      = 1991-039A
CENTER_NAME    = EARTH
REF_FRAME      = TEME
TIME_SYSTEM    = UTC
MEAN_ELEMENT_THEORY = SGP/SGP4

EPOCH          = 2026-02-22T21:59:37.506912
MEAN_MOTION    = 15.04688192
ECCENTRICITY   = .00150966
INCLINATION    = 82.5207
RA_OF_ASC_NODE = 351.1522
ARG_OF_PERICENTER = 27.1109
MEAN_ANOMALY   = 333.0902

EPHEMERIS_TYPE = 0
CLASSIFICATION_TYPE = U
NORAD_CAT_ID   = 21397
ELEMENT_SET_NO = 999
REV_AT_EPOCH   = 86281
BSTAR          = .27584909E-3
MEAN_MOTION_DOT = .3917E-4
MEAN_MOTION_DDOT = 0

CCSDS_OMM_VERS = 2.0
CREATION_DATE  = 
ORIGINATOR     = 

OBJECT_NAME    = COSMOS 2151
OBJECT_ID      = 1991-042A
CENTER_NAME    = EARTH
REF_FRAME      = TEME
TIME_SYSTEM    = UTC
MEAN_ELEMENT_THEORY = SGP/SGP4

EPOCH          = 2026-02-22T20:59:41.366112
MEAN_MOTION    = 15.00043875
ECCENTRICITY   = .0014077
INCLINATION    = 82.4942
RA_OF_ASC_NODE = 97.9698
ARG_OF_PERICENTER = 107.9362
MEAN_ANOMALY   = 252.3399

EPHEMERIS_TYPE = 0
CLASSIFICATION_TYPE = U
NORAD_CAT_ID   = 21422
ELEMENT_SET_NO = 999
REV_AT_EPOCH   = 86097
BSTAR          = .13881298E-3
MEAN_MOTION_DOT = .1758E-4
MEAN_MOTION_DDOT = 0

