DELTA 2 R/B(1)          
1 20453U 90008B   26053.67082925  .00068742  00000+0  86760-3 0  9992
2 20453  35.6038 273.2539 0088412 118.7350 242.2303 15.53747555923793
COSMOS 2058             
1 20465U 90010A   26053.94898804  .00004678  00000+0  27682-3 0  9995
2 20465  82.4671  61.9501 0010442  33.2974 326.8911 15.11175959940016
SL-14 R/B               
1 20466U 90010B   26053.91603742  .00000388  00000+0  44076-4 0  9999
2 20466  82.5003 281.2689 0019626 353.0858   7.0083 14.83555154926297
SL-14 R/B               
1 20511U 90018B   26053.91963261  .00000499  00000+0  59572-4 0  9993
2 20511  82.5181 236.8971 0017292 137.1365 223.1201 14.82127088920394
HST                     
1 20580U 90037B   26053.93398555  .00008245  00000+0  27458-3 0  9994
2 20580  28.4686 140.6395 0001142 321.3922  38.6592 15.29225828771056
SL-16 R/B               
1 20625U 90046B   26053.92262574  .00000082  00000+0  67032-4 0  9998
2 20625  71.0018 328.9267 0015675 319.8925  40.1039 14.15014875846306
COSMOS 2084             
1 20663U 90055A   26053.91100703  .00003177  00000+0  23264-3 0  9990
2 20663  62.7913  25.9773 0019400 186.6120 173.4728 15.05545603934099
SL-6 R/B(2)             
1 20666U 90055D   26053.94007587  .00002274  00000+0  17964-3 0  9999
2 20666  62.7834 304.0076 0022493 343.1628  16.8722 15.03517631935970
SL-8 R/B                
1 20775U 90078B   26053.85685135  .00018056  00000+0  52992-3 0  9991
2 20775  82.9005 264.6463 0365405  63.7467 300.0818 14.88528215807092
SL-8 R/B                
1 21088U 91006B   26053.96179937  .00000050  00000+0  34661-4 0  9990
2 21088  82.9456 180.9943 0023678  77.7766  33.2712 13.77492600762041
OKEAN-3                 
1 21397U 91039A   26053.91640633  .00003917  00000+0  27585-3 0  9991
2 21397  82.5207 351.1522 0015096  27.1109 333.0902 15.04688192862817
COSMOS 2151             
1 21422U 91042A   26053.87478433  .00001758  00000+0  13881-3 0  9991
2 21422  82.4942  97.9698 0014077 107.9362 252.3399 15.00043875860973
